#aV2023  5 13  0  0  0.00000000     288 DD+AD WGS84 FIT  NGA
## 2261 518400.00000000   300.00000000 60077 0.0000000000000
+   32     1  2  3  4  5  6  7  8  9 10 11 12 13 14 15 16 17
+         18 19 20 21 22 23 24 25 26 27 28 29 30 31 32  0  0
+          0  0  0  0  0  0  0  0  0  0  0  0  0  0  0  0  0
+          0  0  0  0  0  0  0  0  0  0  0  0  0  0  0  0  0
+          0  0  0  0  0  0  0  0  0  0  0  0  0  0  0  0  0
++         2  2  2  2  2  2  2  2  2  2  2  2  2  2  2  2  2
++         2  2  2  2  2  2  2  2  2  2  2  2  2  2  2  0  0
++         0  0  0  0  0  0  0  0  0  0  0  0  0  0  0  0  0
++         0  0  0  0  0  0  0  0  0  0  0  0  0  0  0  0  0
++         0  0  0  0  0  0  0  0  0  0  0  0  0  0  0  0  0
%c cc cc ccc ccc cccc cccc cccc cccc ccccc ccccc ccccc ccccc
%c cc cc ccc ccc cccc cccc cccc cccc ccccc ccccc ccccc ccccc
%f  0.0000000  0.000000000  0.00000000000  0.000000000000000
%f  0.0000000  0.000000000  0.00000000000  0.000000000000000
%i    0    0    0    0      0      0      0      0         0
%i    0    0    0    0      0      0      0      0         0
/*      NGA, ST. LOUIS,MO.                                  
/*   EPHEMERIS COMPUTED FROM 2 DAYS OF DATA                 
/*   EPOCHA v8 SMOOTHER                                     
/*   G2139 IERS2010 SATIGS SATAPC                           
*  2023  5 13 15 10  0.00000000
P  1  13249.938294 -14755.754600  17151.626293    185.646006                    
V  1  -1403.741029  22518.704983  20409.331316     -0.028467                    
P  2  10853.275500  18425.356969  16539.995858   -596.611970                    
V  2  -1982.228648  19749.915740 -21176.859317      0.038464                    
P  3  22588.675403 -13154.128869  -4456.625315   -304.424647                    
V  3   5957.017658   -114.678624  31565.900450      0.110283                    
P  4  14405.224914  -7334.715594 -21081.575602     40.464978                    
V  4  20603.685440  17105.977559   8010.675909      0.097327                    
P  5 -23895.679086   2917.574076 -11526.782741   -127.042756                    
V  5  11897.214099  -8250.629414 -27045.285461     -0.014589                    
P  6  -5894.622038 -22332.617339 -12963.684703    588.076510                    
V  6   3602.070904 -16235.988165  26304.541112     -0.002452                    
P  7   6344.946696 -24958.599896  -4880.409967    179.195066                    
V  7   2746.892515   7222.008755 -31011.703754     -0.092677                    
P  8  22160.887503   2944.270274  14565.166220   -122.233491                    
V  8  14079.397753  12103.799366 -23364.003272     -0.018398                    
P  9   4149.436565 -15447.253667 -21267.845218   -159.719377                    
V  9  22351.122358  14921.240590  -6540.729869      0.083704                    
P 10   3311.683665  14720.656763  22011.641805    -36.759814                    
V 10 -25313.454532  10747.176863  -3707.324376     -0.015647                    
P 11 -13209.040871  -9422.078176 -21028.902568   -195.454087                    
V 11   4986.890427 -26234.187799   8582.247117     -0.137813                    
P 12 -24362.353176  10290.616639  -2152.604227   -375.541943                    
V 12  -3172.624635  -1744.239550  31767.241153     -0.046731                    
P 13 -21743.446031 -11606.139410   9987.300288    519.382632                    
V 13  -7709.910105 -10515.131578 -28302.552572      0.053965                    
P 14    302.066291 -16297.880535  20955.173667     55.568355                    
V 14  25046.058806  -9156.036461  -7632.674078      0.128140                    
P 15 -22237.900167     52.537572  14257.518579     39.180649                    
V 15 -15321.234160 -11330.823072 -22856.531693      0.034639                    
P 16  22926.831009   2411.428678 -13884.592104   -501.347289                    
V 16 -15513.542234   6998.294681 -24509.616391      0.032744                    
P 17  -9519.252885 -20544.978483  14225.490091    714.638315                    
V 17  14458.715501   9759.254421  24614.194277      0.014222                    
P 18  -4788.145099  25958.703441  -2060.366270   -264.618642                    
V 18  -2164.375583  -2925.520784 -32002.582532     -0.158631                    
P 19 -16462.516428 -20220.232588   5605.092264    316.364532                    
V 19   6858.053089   3377.055084  30778.706359      0.051114                    
P 20 -19017.192428  -3100.752816 -18163.246855    433.799026                    
V 20  18417.342126 -14297.446766 -17001.736819     -0.020764                    
P 21  15204.483668  -5001.392205  21615.958340    153.842680                    
V 21    250.058470  26328.657870   6922.740037     -0.001925                    
P 22  18233.476482  19182.617984   3552.814190    480.642428                    
V 22  -4654.636905   -653.729811  31262.977619      0.064307                    
P 23  -9818.194679  17601.984003  17222.955190     23.895297                    
V 23 -20458.598088   7938.857985 -19927.925338      0.030759                    
P 24 -14392.853916  10654.035614  19129.540225   -187.254557                    
V 24  -1270.274978 -25315.258111  13321.764990     -0.139078                    
P 25 -16832.750447  16832.780970 -11811.564082    442.533153                    
V 25 -14430.006320   3601.035558  26662.013240      0.027102                    
P 26  13988.492041   9810.399898 -20523.368937    240.841947                    
V 26 -22486.694791  12728.216856  -8954.327989     -0.004691                    
P 27  23063.531928  12552.877051   5017.052296     38.346905                    
V 27   4024.121401   5698.045285 -30791.257201     -0.080673                    
P 28   6006.061967  23376.546743 -11116.550276     77.163110                    
V 28  -3452.116984  13856.582506  27324.501692      0.035653                    
P 29  -8104.974672  12617.470192 -21973.350647   -599.265416                    
V 29 -21163.503506 -17907.694444  -2567.634129     -0.013798                    
P 30  -1113.556915 -25802.095700   5672.536824   -517.408882                    
V 30   4520.792625  -6653.633718 -30231.456861      0.021397                    
P 31  11297.179009  15163.925840 -18652.724929   -216.024999                    
V 31  -4843.330190  23056.230096  16393.225691     -0.007878                    
P 32  13184.385330  19907.945839  12021.074141   -475.525587                    
V 32 -13383.592481  -6941.106805  26378.456423     -0.092822                    
EOF
